{"type": "FeatureCollection", "features": [{"type": "Feature", "properties": {"name": "unnamed"}, "geometry": {"type": "MultiLineString", "coordinates": [[[92.197846, 22.503607], [92.180105, 22.502997], [92.16155, 22.513007], [92.155284, 22.514187], [92.145518, 22.507839], [92.144623, 22.500596], [92.14739, 22.493272], [92.148448, 22.486843], [92.140066, 22.470038], [92.125987, 22.456895], [92.106619, 22.44831], [92.083263, 22.445258], [92.071056, 22.447537], [92.054291, 22.457302], [92.042003, 22.45954], [92.033214, 22.453152], [92.028901, 22.424994], [92.021658, 22.418565], [91.97462, 22.418769], [91.953054, 22.422431], [91.929291, 22.431586], [91.92628, 22.425889], [91.921886, 22.424587], [91.916026, 22.425116], [91.908132, 22.42475]]]}}, {"type": "Feature", "properties": {"name": "Balak"}, "geometry": {"type": "MultiLineString", "coordinates": [[[91.164561, 24.355251], [91.160818, 24.349229], [91.160085, 24.332139], [91.163992, 24.313666], [91.16505, 24.299872], [91.162527, 24.284044], [91.156261, 24.270087], [91.142833, 24.257636], [91.119151, 24.252712], [91.093761, 24.259711], [91.080658, 24.252712], [91.076101, 24.235297], [91.073171, 24.229112], [91.067312, 24.224799], [91.0595, 24.216742], [91.042084, 24.196845], [91.012218, 24.17475], [90.999766, 24.162218], [90.998139, 24.15351], [91.001882, 24.144721], [91.014252, 24.131537], [91.030691, 24.114447], [91.035737, 24.105821], [91.040945, 24.093451], [91.04184, 24.082628], [91.039236, 24.072537], [91.033376, 24.063015], [91.008718, 24.040066], [90.999766, 24.034044], [90.98642, 24.014716], [90.985037, 24.01435], [90.976492, 24.007514]]]}}, {"type": "Feature", "properties": {"name": "Balak"}, "geometry": {"type": "MultiLineString", "coordinates": [[[94.258718, 25.461208], [94.236095, 25.461534], [94.223399, 25.453925], [94.214773, 25.442979], [94.204112, 25.433214], [94.169444, 25.419623], [94.163015, 25.412665], [94.15683, 25.40351], [94.149425, 25.395616], [94.138927, 25.392279], [94.120209, 25.388495], [94.108653, 25.377794], [94.102631, 25.361599], [94.101085, 25.341091], [94.063975, 25.304145], [94.053233, 25.296088], [94.057872, 25.32331], [94.066824, 25.349473], [94.072276, 25.37462], [94.066905, 25.398505], [94.053396, 25.409003], [94.029714, 25.418809], [94.003835, 25.423692], [93.984386, 25.419623], [93.949718, 25.443671], [93.921397, 25.46955], [93.888682, 25.482367], [93.841075, 25.467353], [93.808604, 25.446153], [93.723643, 25.364081], [93.698741, 25.347195], [93.679128, 25.328315], [93.679617, 25.324042], [93.67921, 25.314399], [93.649099, 25.26199], [93.612722, 25.215684], [93.600841, 25.18891], [93.584565, 25.178534], [93.546804, 25.165717], [93.517996, 25.150662], [93.496104, 25.128241], [93.482026, 25.099677], [93.477306, 25.066433], [93.473888, 25.054511], [93.449962, 25.014919], [93.42921, 24.970404], [93.410085, 24.944403], [93.40504, 24.931423], [93.402761, 24.917426], [93.402192, 24.901923], [93.411632, 24.846706], [93.409679, 24.830593], [93.399099, 24.81977], [93.385265, 24.817694], [93.37322, 24.814276], [93.368093, 24.799587], [93.367198, 24.783718], [93.363455, 24.766954], [93.355235, 24.757107], [93.34075, 24.761664], [93.334402, 24.737901], [93.333263, 24.716905], [93.330577, 24.707099], [93.324474, 24.699734], [93.313406, 24.693427], [93.31129, 24.696804], [93.311046, 24.697699], [93.306651, 24.700222], [93.302419, 24.687079], [93.294526, 24.675849], [93.282481, 24.66828], [93.265636, 24.666083], [93.24822, 24.671983], [93.23935, 24.683783], [93.231619, 24.697048], [93.217784, 24.707058], [93.219005, 24.69599], [93.230886, 24.666083], [93.220795, 24.659044], [93.218191, 24.650946], [93.221772, 24.6435], [93.230886, 24.63878], [93.220795, 24.629177], [93.218191, 24.617255], [93.217784, 24.590359], [93.212494, 24.575263], [93.204275, 24.561103], [93.186534, 24.538845], [93.177664, 24.524359], [93.168875, 24.474311], [93.151296, 24.427843], [93.148204, 24.410509], [93.146007, 24.404161], [93.138601, 24.389512], [93.03655, 24.259223], [93.024913, 24.234687], [93.018565, 24.234687], [93.013194, 24.26203], [93.014171, 24.274482], [93.018565, 24.288682], [93.026134, 24.300076], [93.042735, 24.315253], [93.045909, 24.326606], [93.041515, 24.340888], [93.022878, 24.354315], [93.018565, 24.367499], [93.021983, 24.390204], [93.020518, 24.400214], [93.011729, 24.412869], [93.036632, 24.414659], [93.045665, 24.444607], [93.052745, 24.522732], [93.064464, 24.558946], [93.07366, 24.567247], [93.090587, 24.569892], [93.100597, 24.577094], [93.095714, 24.593695], [93.080089, 24.624538], [93.09905, 24.654405], [93.106212, 24.671983], [93.097341, 24.679755], [93.091075, 24.682725], [93.087983, 24.690294], [93.086925, 24.710476], [93.083588, 24.71837], [93.075857, 24.721625], [93.066987, 24.723456], [93.059581, 24.726915], [93.035574, 24.780341], [93.028575, 24.789618], [92.987641, 24.789618], [92.975678, 24.791775], [92.966563, 24.796413], [92.956554, 24.80329], [92.928966, 24.792344], [92.910818, 24.74254], [92.888194, 24.734402], [92.888194, 24.741156], [92.896007, 24.742011], [92.899994, 24.743842], [92.903331, 24.746161], [92.908702, 24.748643], [92.896902, 24.753241], [92.867686, 24.76911], [92.865896, 24.760362], [92.863292, 24.755886], [92.854096, 24.748643], [92.844493, 24.754218], [92.842865, 24.760199], [92.843435, 24.767035], [92.840424, 24.775336], [92.834565, 24.779608], [92.828136, 24.781602], [92.822765, 24.784857], [92.820567, 24.79267], [92.827891, 24.794298], [92.859955, 24.815212], [92.867686, 24.816921], [92.85849, 24.830878], [92.827403, 24.824164], [92.820567, 24.833686], [92.814464, 24.835069], [92.800955, 24.841864], [92.786876, 24.852159], [92.778901, 24.864081], [92.759288, 24.864366], [92.747081, 24.886257], [92.733653, 24.900458], [92.710704, 24.877753], [92.716238, 24.873603], [92.72047, 24.869737], [92.724864, 24.866482], [92.731212, 24.864081], [92.731212, 24.857856], [92.71339, 24.863634], [92.698741, 24.86225], [92.691905, 24.853339], [92.697195, 24.836778], [92.686534, 24.836697], [92.667491, 24.831814], [92.658946, 24.830593], [92.646576, 24.83279], [92.643891, 24.83747], [92.646007, 24.842068], [92.648692, 24.843573], [92.647472, 24.847439], [92.648692, 24.852118], [92.649018, 24.856228], [92.645274, 24.857856], [92.634044, 24.85753], [92.628917, 24.858344], [92.624522, 24.860948], [92.616791, 24.867377], [92.608653, 24.872382], [92.600597, 24.875922], [92.593435, 24.877753], [92.583751, 24.87755], [92.565929, 24.872748], [92.518565, 24.870429], [92.493907, 24.865424], [92.477468, 24.864081], [92.49114, 24.883897], [92.494151, 24.895087], [92.490896, 24.912543], [92.483409, 24.928494], [92.474132, 24.936835], [92.449311, 24.946641], [92.457612, 24.953477], [92.453705, 24.958319], [92.444265, 24.962592], [92.41212, 24.98432], [92.411876, 24.987616], [92.39446, 24.993476], [92.379649, 25.004462], [92.362804, 25.010565], [92.339447, 25.001899], [92.307628, 25.026923], [92.276866, 25.003852], [92.250255, 24.971259], [92.230235, 24.967719], [92.22047, 24.948676], [92.208507, 24.945502], [92.194428, 24.945624], [92.179128, 24.936713], [92.168224, 24.927191], [92.12794, 24.905056], [92.113292, 24.894151], [92.107432, 24.892035], [92.095876, 24.893337], [92.088308, 24.898708], [92.080577, 24.901638], [92.062266, 24.891303], [92.038585, 24.885199], [92.031993, 24.879584], [92.0206, 24.866563], [92.014578, 24.864081], [91.97226, 24.862576], [91.955984, 24.864081], [91.954194, 24.863715], [91.929291, 24.864081], [91.907807, 24.870429], [91.89796, 24.871527], [91.863455, 24.881863], [91.824229, 24.899604], [91.790131, 24.904853], [91.771576, 24.877753], [91.766531, 24.892035], [91.760671, 24.897284], [91.753347, 24.899522], [91.743663, 24.905056], [91.728038, 24.918036], [91.717784, 24.923774], [91.706472, 24.926134], [91.703136, 24.931993], [91.702729, 24.970811], [91.69866, 24.980536], [91.688731, 24.987006], [91.668549, 24.995063], [91.675304, 24.99433], [91.696544, 24.995063], [91.690684, 25.003363], [91.680268, 25.015245], [91.675955, 25.022325], [91.688975, 25.022325], [91.688975, 25.028591], [91.665131, 25.033311], [91.641368, 25.018378], [91.617442, 25.00849], [91.592865, 25.028591], [91.582937, 25.022528], [91.575125, 25.026435], [91.569591, 25.036811], [91.566173, 25.05032], [91.552419, 25.042833], [91.548106, 25.054877], [91.528901, 25.056952], [91.524506, 25.066433], [91.521414, 25.078437], [91.513601, 25.082709], [91.503429, 25.080593], [91.493907, 25.073269], [91.47934, 25.064968], [91.470307, 25.07213], [91.463145, 25.091254], [91.450857, 25.094753], [91.439382, 25.094102], [91.427419, 25.090196], [91.414643, 25.083808], [91.399506, 25.069281], [91.382823, 25.046007], [91.371104, 25.024441], [91.370616, 25.014919], [91.371349, 25.010199], [91.389903, 24.990546], [91.394216, 24.987616], [91.395925, 24.973334], [91.394542, 24.96072], [91.389578, 24.954657], [91.380626, 24.960273], [91.374441, 24.960273], [91.353608, 24.917426], [91.348888, 24.8935], [91.353282, 24.871527], [91.370942, 24.849799], [91.379405, 24.836493], [91.377452, 24.830593], [91.371755, 24.824164], [91.363373, 24.810085], [91.358653, 24.796007], [91.363455, 24.789618], [91.388927, 24.767157], [91.379242, 24.718207], [91.347097, 24.670478], [91.304779, 24.651801], [91.308116, 24.634223], [91.302419, 24.614081], [91.29127, 24.600898], [91.27825, 24.604031], [91.270274, 24.593533], [91.26116, 24.587104], [91.251882, 24.582139], [91.243337, 24.576117], [91.237397, 24.569281], [91.207449, 24.512803], [91.1963, 24.498887], [91.181895, 24.487901], [91.181895, 24.501573], [91.174571, 24.501573], [91.160818, 24.480496], [91.168468, 24.476182], [91.188731, 24.460639], [91.173839, 24.455268], [91.179779, 24.449897], [91.193614, 24.444648], [91.202403, 24.439521], [91.20224, 24.42239], [91.192149, 24.410468], [91.178722, 24.40119], [91.168956, 24.39171], [91.161062, 24.376776], [91.159434, 24.368232], [91.164968, 24.364447], [91.170909, 24.363552], [91.171804, 24.361355], [91.169037, 24.358344], [91.164561, 24.355251]], [[90.976492, 24.007514], [90.967052, 23.994208], [90.952647, 23.983995], [90.936453, 23.976426], [90.912364, 23.969184], [90.865733, 23.965522], [90.85906, 23.963894], [90.852061, 23.960801], [90.846934, 23.956326], [90.843761, 23.950263], [90.842784, 23.942735], [90.844005, 23.935411], [90.855968, 23.891425], [90.85434, 23.884711], [90.84962, 23.880194], [90.843272, 23.876532], [90.836436, 23.873806], [90.830089, 23.871934], [90.822683, 23.870917], [90.792003, 23.872138], [90.784923, 23.871121], [90.778331, 23.86872], [90.771576, 23.864691], [90.765391, 23.859565], [90.759776, 23.853461], [90.75587, 23.846503], [90.7553, 23.838406], [90.760753, 23.816718], [90.76116, 23.808865], [90.759695, 23.801947], [90.739024, 23.752631], [90.723399, 23.73074], [90.721202, 23.721869], [90.724864, 23.715399], [90.739268, 23.706081], [90.744884, 23.701361], [90.749278, 23.695095], [90.751475, 23.687934], [90.750906, 23.680691], [90.743093, 23.667263], [90.730479, 23.656602], [90.715343, 23.65001], [90.699799, 23.648708], [90.683604, 23.651394], [90.675385, 23.653998], [90.668875, 23.657904], [90.662608, 23.663153], [90.655935, 23.667589], [90.649343, 23.668158], [90.643077, 23.661689], [90.641368, 23.647528], [90.650971, 23.619412], [90.647472, 23.605984], [90.64446, 23.602891], [90.64088, 23.60045], [90.63323, 23.596625]], [[90.734304, 23.659288], [90.760916, 23.634101], [90.769623, 23.622829], [90.767345, 23.617743], [90.751882, 23.61579], [90.740245, 23.610297], [90.735932, 23.601671], [90.743175, 23.590399], [90.733165, 23.580024], [90.710948, 23.567084], [90.702159, 23.55504]]]}}, {"type": "Feature", "properties": {"name": "Brahmaputra"}, "geometry": {"type": "MultiLineString", "coordinates": [[[95.396495, 28.002956], [95.401541, 27.971991], [95.418956, 27.941718], [95.441335, 27.915554], [95.461518, 27.896796], [95.47169, 27.871365], [95.459483, 27.843858], [95.437266, 27.824815], [95.417003, 27.824774], [95.403331, 27.809353], [95.38323, 27.793809], [95.360281, 27.781806], [95.33839, 27.776964], [95.330333, 27.772406], [95.293468, 27.742784], [95.254405, 27.730333], [95.217703, 27.725287], [95.149425, 27.701239], [95.108165, 27.696601], [95.098155, 27.691352], [95.090831, 27.679267], [95.085541, 27.653428], [95.081147, 27.640448], [95.093435, 27.650906], [95.104096, 27.666775], [95.116954, 27.68122], [95.135753, 27.687567], [95.144135, 27.680487], [95.148367, 27.663764], [95.147065, 27.644395], [95.139415, 27.629584], [95.102468, 27.60989], [95.024913, 27.606757], [94.992442, 27.599433], [94.954845, 27.574652], [94.94394, 27.569403], [94.933116, 27.569648], [94.92335, 27.571641], [94.916596, 27.57156], [94.906342, 27.561876], [94.88087, 27.528591], [94.875662, 27.520046], [94.868175, 27.502997], [94.850678, 27.501044], [94.831391, 27.503485], [94.817556, 27.499538], [94.761811, 27.458319], [94.752208, 27.448594], [94.76946, 27.435004], [94.757823, 27.419257], [94.721446, 27.396796], [94.703136, 27.382432], [94.66684, 27.363796], [94.649832, 27.351833], [94.654796, 27.349148], [94.664806, 27.341498], [94.670095, 27.338731], [94.667003, 27.334825], [94.665538, 27.331407], [94.66448, 27.327989], [94.662852, 27.32449], [94.646495, 27.328152], [94.631847, 27.316107], [94.620616, 27.29621], [94.615001, 27.276679], [94.622813, 27.287462], [94.634532, 27.29918], [94.648448, 27.308417], [94.662852, 27.311469], [94.681407, 27.305691], [94.684255, 27.294949], [94.676687, 27.282009], [94.662852, 27.269884], [94.658376, 27.269599], [94.654307, 27.272406], [94.648367, 27.273057], [94.631847, 27.260606], [94.61964, 27.253607], [94.615001, 27.249376], [94.60849, 27.23725], [94.601329, 27.194159], [94.592865, 27.199815], [94.587901, 27.207587], [94.586355, 27.217353], [94.587576, 27.228868], [94.571056, 27.218085], [94.565359, 27.197048], [94.566498, 27.150092], [94.565684, 27.139838], [94.560313, 27.115587], [94.554779, 27.101386], [94.542003, 27.09988], [94.518891, 27.106024], [94.500906, 27.096869], [94.471446, 27.069525], [94.4546, 27.063788], [94.448416, 27.059394], [94.445404, 27.049018], [94.444347, 27.026882], [94.440684, 27.016669], [94.432221, 27.007758], [94.417003, 26.996161], [94.406261, 26.985134], [94.399832, 26.980536], [94.389171, 26.975653], [94.359386, 26.969916], [94.351492, 26.965155], [94.325287, 26.938788], [94.308116, 26.927598], [94.286632, 26.920437], [94.264578, 26.919013], [94.20753, 26.927273], [94.196869, 26.92418], [94.184255, 26.916571], [94.173757, 26.906602], [94.169444, 26.896552], [94.164643, 26.896674], [94.155284, 26.883246], [94.147716, 26.86872], [94.148936, 26.86579], [94.143565, 26.862372], [94.121593, 26.852159], [94.121186, 26.855414], [94.121593, 26.86579], [94.114757, 26.858344], [94.113292, 26.869452], [94.119395, 26.883246], [94.135183, 26.906806], [94.113455, 26.912421], [94.093435, 26.901923], [94.076427, 26.88703], [94.063487, 26.879462], [94.044363, 26.875841], [94.0088, 26.858466], [93.991222, 26.852159], [93.945567, 26.841579], [93.927013, 26.831651], [93.906505, 26.813992], [93.877533, 26.778673], [93.863373, 26.765937], [93.841075, 26.755927], [93.763764, 26.739529], [93.751557, 26.732042], [93.656668, 26.714952], [93.635916, 26.718085], [93.61671, 26.724799], [93.59905, 26.734239], [93.583588, 26.746039], [93.567963, 26.75198], [93.5053, 26.755927], [93.462576, 26.766954], [93.439952, 26.768093], [93.415701, 26.762152], [93.410818, 26.759589], [93.406668, 26.756049], [93.377452, 26.723456], [93.368337, 26.718451], [93.357595, 26.718451], [93.346202, 26.723009], [93.325776, 26.734931], [93.313243, 26.739773], [93.300222, 26.741767], [93.28712, 26.740912], [93.274343, 26.737128], [93.248057, 26.724433], [93.183116, 26.674018], [93.141612, 26.654568], [93.119151, 26.647488], [93.10434, 26.649766], [93.086681, 26.656195], [93.062511, 26.654608], [93.018565, 26.646064], [92.898448, 26.65351], [92.884207, 26.650987], [92.880626, 26.644477], [92.879975, 26.635443], [92.874522, 26.625596], [92.85377, 26.612006], [92.833751, 26.608344], [92.732595, 26.613593], [92.710704, 26.611355], [92.67628, 26.600206], [92.657156, 26.590847], [92.648692, 26.581244], [92.644542, 26.5692], [92.623139, 26.53323], [92.614513, 26.52322], [92.594737, 26.517524], [92.508067, 26.515733], [92.478933, 26.519477], [92.429698, 26.534695], [92.401541, 26.5362], [92.391205, 26.53323], [92.353282, 26.515733], [92.325125, 26.508165], [92.313894, 26.502712], [92.302013, 26.492133], [92.292735, 26.487576], [92.255056, 26.474799], [92.249522, 26.473944], [92.24464, 26.471544], [92.240652, 26.468044], [92.237071, 26.463568], [92.234386, 26.458319], [92.232432, 26.452704], [92.230968, 26.446885], [92.230235, 26.44123], [92.22462, 26.44123], [92.202647, 26.454617], [92.172781, 26.442939], [92.124441, 26.403388], [92.110362, 26.394843], [92.075776, 26.380154], [92.065847, 26.372382], [92.063406, 26.358751], [92.069265, 26.326117], [92.065847, 26.309638], [92.056895, 26.30329], [92.040701, 26.297146], [92.022472, 26.292304], [92.007823, 26.290391], [91.997081, 26.287055], [91.970795, 26.272081], [91.952891, 26.268663], [91.933523, 26.269558], [91.924734, 26.268012], [91.915701, 26.262885], [91.911876, 26.258979], [91.902599, 26.246161], [91.897553, 26.24197], [91.891205, 26.238796], [91.884369, 26.236599], [91.878022, 26.235378], [91.869884, 26.235867], [91.854096, 26.239691], [91.846121, 26.239325], [91.692393, 26.171942], [91.665294, 26.166449], [91.619395, 26.171332], [91.606944, 26.1706], [91.595144, 26.16706], [91.542084, 26.144843], [91.529063, 26.141059], [91.498139, 26.139757], [91.39088, 26.170437], [91.37558, 26.172146], [91.360444, 26.171576], [91.329845, 26.164008], [91.316417, 26.162177], [91.302826, 26.162665], [91.288178, 26.165595], [91.275076, 26.170478], [91.250418, 26.183214], [91.198253, 26.202826], [91.135509, 26.213568], [91.119721, 26.211859], [91.062104, 26.186835], [91.029552, 26.179999], [90.963796, 26.17414], [90.932872, 26.162543], [90.902843, 26.142646], [90.887462, 26.134955], [90.869151, 26.130886], [90.84962, 26.130439], [90.839692, 26.1317], [90.831065, 26.134711], [90.825125, 26.139024], [90.813975, 26.149197], [90.807384, 26.15351], [90.7942, 26.157986], [90.752452, 26.160183], [90.739513, 26.162787], [90.728282, 26.167548], [90.706391, 26.180121], [90.682058, 26.190009], [90.583018, 26.205146], [90.506847, 26.228705], [90.490001, 26.228868], [90.473888, 26.224555], [90.459972, 26.214871], [90.434255, 26.178249], [90.421479, 26.168402], [90.402924, 26.161444], [90.364513, 26.154568], [90.346121, 26.148301], [90.308442, 26.125067], [90.294037, 26.119737], [90.242442, 26.11282], [90.226329, 26.106472], [90.1963, 26.084499], [90.176768, 26.077216], [90.135753, 26.067654], [90.045421, 26.034044], [89.97519, 26.018988], [89.954194, 26.010688], [89.936615, 25.99433], [89.904063, 25.941962], [89.889659, 25.926459], [89.859386, 25.902167], [89.846446, 25.888739], [89.836436, 25.871405], [89.812999, 25.815741], [89.744884, 25.709499], [89.736827, 25.69184], [89.722585, 25.630927], [89.7046, 25.592963], [89.697765, 25.572943], [89.697032, 25.550727], [89.70696, 25.506212], [89.707612, 25.483344], [89.698416, 25.438788], [89.699229, 25.417344], [89.697276, 25.399278], [89.691417, 25.382025], [89.675385, 25.348944], [89.670909, 25.324327], [89.678315, 25.305243], [89.690929, 25.287177], [89.700776, 25.265733], [89.702647, 25.241767], [89.696707, 25.219916], [89.685069, 25.200141], [89.662527, 25.173367], [89.65797, 25.163845], [89.649994, 25.130683], [89.626231, 25.074774], [89.612722, 24.959825], [89.612722, 24.94835], [89.614268, 24.937079], [89.618093, 24.926215], [89.624278, 24.915839], [89.647472, 24.889838], [89.658132, 24.8699], [89.665294, 24.848334], [89.670665, 24.802924], [89.673595, 24.791531], [89.679291, 24.780707], [89.7046, 24.750556], [89.715831, 24.726426], [89.731537, 24.651719], [89.759858, 24.586982], [89.767996, 24.549587], [89.768972, 24.53087], [89.767345, 24.511176], [89.759288, 24.479844], [89.758311, 24.442572], [89.749034, 24.370551], [89.749034, 24.360785], [89.7553, 24.322455], [89.754649, 24.283271], [89.751475, 24.268256], [89.749034, 24.26081], [89.734793, 24.232733], [89.733165, 24.22366], [89.734874, 24.216498], [89.741222, 24.201199], [89.743175, 24.193183], [89.743337, 24.183783], [89.739675, 24.156684], [89.740326, 24.131293], [89.739675, 24.122992], [89.734793, 24.105984], [89.701671, 24.035509], [89.696788, 24.016059], [89.695811, 23.997016], [89.700287, 23.958116], [89.726085, 23.884467], [89.744395, 23.858669], [89.785655, 23.796739], [89.803722, 23.779812], [89.843272, 23.756049], [89.855072, 23.746609], [89.908621, 23.67414], [89.920095, 23.665229], [89.934011, 23.659776], [89.969005, 23.652167], [89.985037, 23.644355], [90.142589, 23.544501], [90.170339, 23.520453], [90.19337, 23.506903], [90.212901, 23.495469], [90.225352, 23.483018], [90.235281, 23.474392], [90.250092, 23.461982]], [[89.755463, 24.274441], [89.75644, 24.272895], [89.75823, 24.271511], [89.763927, 24.268012], [89.765717, 24.264268], [89.792572, 24.237576], [89.803722, 24.2296], [89.806651, 24.226589], [89.807628, 24.221218], [89.808116, 24.199327], [89.826101, 24.195136], [89.829845, 24.185981], [89.827891, 24.176825], [89.828868, 24.172634], [89.832286, 24.166124], [89.828298, 24.151801], [89.826427, 24.137559], [89.835704, 24.131049], [89.8838, 24.131049], [89.907156, 24.089464], [89.913259, 24.08747], [89.922781, 24.086778], [89.931244, 24.085069], [89.935069, 24.079861], [89.936453, 24.071804], [89.940033, 24.065741], [89.961436, 24.039618], [89.970307, 24.034857], [89.996349, 24.035468], [90.026296, 24.030707], [90.038503, 24.03087], [90.050955, 24.035468], [90.044932, 24.021796], [90.066417, 24.015082], [90.083507, 24.013048], [90.094737, 24.005968], [90.103282, 23.967719], [90.114675, 23.955919], [90.146658, 23.939276], [90.148936, 23.936713], [90.151296, 23.932644], [90.154714, 23.928412], [90.160248, 23.925605], [90.166108, 23.925889], [90.169037, 23.932644], [90.174571, 23.933051], [90.194591, 23.925971], [90.205007, 23.920844], [90.212169, 23.915635], [90.22698, 23.898017], [90.238292, 23.880398], [90.246023, 23.86046], [90.250418, 23.836249], [90.240896, 23.797431], [90.222992, 23.757188], [90.220225, 23.729356], [90.256602, 23.727607], [90.276541, 23.737413], [90.290701, 23.749701], [90.302664, 23.756659], [90.315115, 23.750556], [90.347179, 23.715766], [90.35963, 23.706488], [90.378022, 23.697821], [90.405284, 23.693793], [90.421641, 23.686062], [90.466889, 23.643866], [90.476329, 23.631415], [90.457042, 23.625515], [90.458018, 23.608507], [90.476329, 23.582953]]]}}, {"type": "Feature", "properties": {"name": "Tista"}, "geometry": {"type": "MultiLineString", "coordinates": [[[88.591807, 27.695095], [88.59962, 27.684394], [88.607188, 27.663398], [88.612315, 27.653428], [88.617931, 27.648139], [88.634044, 27.637641], [88.639578, 27.632921], [88.659923, 27.60578], [88.66684, 27.589423], [88.667003, 27.57156], [88.65919, 27.555976], [88.646983, 27.549913], [88.612315, 27.544216], [88.592865, 27.534003], [88.584402, 27.530585], [88.551768, 27.526638], [88.543956, 27.523749], [88.533702, 27.508653], [88.527599, 27.487657], [88.52296, 27.448594], [88.522553, 27.441596], [88.523448, 27.430854], [88.521576, 27.407091], [88.5206, 27.401557], [88.502615, 27.37755], [88.497813, 27.373074], [88.493663, 27.368191], [88.48878, 27.358669], [88.486095, 27.3487], [88.485037, 27.332099], [88.481944, 27.32449], [88.478038, 27.323432], [88.464936, 27.325303], [88.460948, 27.32449], [88.458995, 27.320176], [88.456391, 27.308295], [88.450694, 27.295844], [88.449474, 27.288642], [88.44752, 27.282294], [88.44044, 27.276679], [88.44044, 27.269884], [88.449474, 27.263536], [88.462332, 27.246161], [88.471446, 27.24254], [88.485769, 27.24018], [88.495372, 27.232937], [88.500662, 27.221055], [88.502452, 27.204698], [88.510916, 27.183621], [88.526378, 27.169013], [88.533214, 27.154324], [88.516124, 27.132676], [88.478282, 27.11225], [88.472667, 27.106879], [88.466238, 27.09516], [88.457123, 27.083441], [88.444428, 27.07807], [88.434662, 27.066596], [88.449474, 27.012966], [88.44044, 26.996161], [88.44044, 26.989325], [88.448416, 26.989325], [88.448416, 26.981879], [88.442393, 26.963324], [88.459727, 26.926947], [88.509288, 26.858344], [88.612315, 26.749091], [88.646088, 26.692694], [88.664154, 26.663601], [88.675141, 26.65058], [88.739187, 26.59516], [88.756358, 26.568305], [88.763113, 26.5362], [88.761974, 26.525702], [88.757091, 26.507921], [88.756277, 26.502061], [88.759044, 26.492784], [88.768077, 26.477566], [88.769949, 26.471381], [88.775076, 26.460069], [88.890717, 26.342068], [88.937266, 26.276679], [89.054454, 26.164659], [89.081716, 26.153754], [89.093435, 26.138495], [89.133067, 26.070665], [89.145274, 26.034613], [89.157725, 26.009467], [89.161062, 25.969428], [89.167247, 25.954047], [89.2199, 25.92654], [89.22934, 25.923285], [89.238292, 25.912421], [89.290619, 25.865831], [89.296397, 25.856309], [89.300792, 25.846503], [89.307058, 25.837592], [89.317963, 25.830512], [89.328868, 25.829372], [89.353445, 25.831366], [89.371186, 25.823798], [89.39503, 25.820014], [89.399913, 25.813747], [89.404714, 25.809394], [89.468028, 25.773383], [89.483002, 25.759792], [89.48935, 25.738349], [89.493663, 25.728095], [89.50294, 25.719591], [89.516612, 25.71072], [89.518077, 25.705837], [89.531668, 25.686143], [89.537852, 25.674384], [89.539154, 25.668524], [89.538829, 25.664333], [89.535492, 25.65115], [89.534272, 25.642442], [89.534679, 25.634101], [89.536632, 25.625922], [89.543468, 25.609076], [89.551524, 25.573554], [89.5595, 25.559353], [89.564138, 25.552598], [89.570079, 25.545925], [89.576264, 25.54206], [89.583507, 25.539984], [89.636974, 25.534369], [89.654063, 25.529568], [89.660737, 25.525662], [89.666108, 25.51907], [89.667491, 25.512071], [89.664968, 25.49669], [89.664561, 25.487372], [89.666108, 25.477403], [89.668956, 25.467637], [89.672862, 25.459011], [89.677664, 25.452216], [89.696544, 25.435085], [89.696218, 25.434394], [89.6963, 25.433946], [89.696788, 25.433417], [89.697032, 25.432644]]]}}, {"type": "Feature", "properties": {"name": "Ganges"}, "geometry": {"type": "MultiLineString", "coordinates": [[[79.84075, 30.888495], [79.820323, 30.856757], [79.813731, 30.840155], [79.813487, 30.819607], [79.818451, 30.802924], [79.83489, 30.768907], [79.84075, 30.750678], [79.840261, 30.744696], [79.837901, 30.740017], [79.836925, 30.733954], [79.84075, 30.723985], [79.849213, 30.714626], [79.868907, 30.700751], [79.874929, 30.689236], [79.856537, 30.684882], [79.847097, 30.675564], [79.833914, 30.648261], [79.824799, 30.637234], [79.807384, 30.626654], [79.796397, 30.61754], [79.779307, 30.595486], [79.753835, 30.546576], [79.738292, 30.524115], [79.715343, 30.508165], [79.684988, 30.500108], [79.654714, 30.501654], [79.631602, 30.514512], [79.593272, 30.550645], [79.568777, 30.56684], [79.545909, 30.573188], [79.522553, 30.563992], [79.436046, 30.482367], [79.409434, 30.439073], [79.388927, 30.42239], [79.340831, 30.409939], [79.3213, 30.398057], [79.31308, 30.372097], [79.31308, 30.371161], [79.306733, 30.345974], [79.290701, 30.323188], [79.268891, 30.30447], [79.218761, 30.2803], [79.205089, 30.277167], [79.189545, 30.277696], [79.177989, 30.282172], [79.170665, 30.288926], [79.165701, 30.295356], [79.162364, 30.298855], [79.136974, 30.304307], [79.020274, 30.307685], [79.000662, 30.306016], [78.903819, 30.267849], [78.878347, 30.264716], [78.858653, 30.25906], [78.803152, 30.235907], [78.789073, 30.233344], [78.779714, 30.238105], [78.770763, 30.236355], [78.762462, 30.232245], [78.754812, 30.229926], [78.741954, 30.232489], [78.70989, 30.242784], [78.696218, 30.244208], [78.687104, 30.240017], [78.642589, 30.204454], [78.594249, 30.145209], [78.582612, 30.122138], [78.578868, 30.097602], [78.586355, 30.072862], [78.537201, 30.077338], [78.528575, 30.076361], [78.517345, 30.073188], [78.46339, 30.072862], [78.453054, 30.07571], [78.441905, 30.081488], [78.433035, 30.090603], [78.42213, 30.122138], [78.40504, 30.132351], [78.384532, 30.133897], [78.367198, 30.126899], [78.357921, 30.13349], [78.34547, 30.139106], [78.332123, 30.142035], [78.320079, 30.14057], [78.285818, 30.096503], [78.28004, 30.071601], [78.265717, 30.054063], [78.230724, 30.024482], [78.164073, 29.949897], [78.154877, 29.925482], [78.156342, 29.89997], [78.160737, 29.877224], [78.19044, 29.79267], [78.197846, 29.748236], [78.189057, 29.706732], [78.154877, 29.675076], [78.107188, 29.654568], [78.094737, 29.646511], [78.090017, 29.642442], [78.084483, 29.641059], [78.069347, 29.640937], [78.042084, 29.634874], [78.018891, 29.619208], [78.000987, 29.597032], [77.990489, 29.572048], [77.991791, 29.531073], [78.011241, 29.497667], [78.035655, 29.467231], [78.052419, 29.434841], [78.053722, 29.419867], [78.050304, 29.389268], [78.052419, 29.373969], [78.062104, 29.363796], [78.075206, 29.35574], [78.082042, 29.344672], [78.072358, 29.325629], [78.103526, 29.27851], [78.117198, 29.25141], [78.117686, 29.2331], [78.113536, 29.222683], [78.115001, 29.211859], [78.118744, 29.201483], [78.120942, 29.192165], [78.115245, 29.179755], [78.088471, 29.153144], [78.079845, 29.140652], [78.076101, 29.058051], [78.079519, 29.046942], [78.072032, 28.991319], [78.072358, 28.969306], [78.0949, 28.935981], [78.105968, 28.913642], [78.10377, 28.897325], [78.096202, 28.88703], [78.095795, 28.877631], [78.098562, 28.867865], [78.100352, 28.856309], [78.099132, 28.851386], [78.094005, 28.841986], [78.092784, 28.835883], [78.095876, 28.828477], [78.103038, 28.824164], [78.110362, 28.821316], [78.114675, 28.818468], [78.118663, 28.814317], [78.123057, 28.813422], [78.12672, 28.811632], [78.128347, 28.804796], [78.126964, 28.799913], [78.121593, 28.788031], [78.120942, 28.784369], [78.12379, 28.778144], [78.13144, 28.770046], [78.134532, 28.763861], [78.140229, 28.74787], [78.146495, 28.738349], [78.165701, 28.719184], [78.182709, 28.692898], [78.183604, 28.67182], [78.177989, 28.649848], [78.176036, 28.620469], [78.195323, 28.570258], [78.264659, 28.488796], [78.279063, 28.441718], [78.27239, 28.43476], [78.267507, 28.428168], [78.26474, 28.421251], [78.2671, 28.419989], [78.271983, 28.414984], [78.276866, 28.407986], [78.279063, 28.400743], [78.275401, 28.390448], [78.268321, 28.381049], [78.263927, 28.372016], [78.268565, 28.36286], [78.275483, 28.355007], [78.280935, 28.344794], [78.284597, 28.333441], [78.285818, 28.322292], [78.290131, 28.306952], [78.300792, 28.296169], [78.326752, 28.277208], [78.345225, 28.251776], [78.353526, 28.243109], [78.37379, 28.229804], [78.382742, 28.221991], [78.406261, 28.186103], [78.441417, 28.150662], [78.456065, 28.12641], [78.46339, 28.105902], [78.477061, 28.092882], [78.543956, 28.045193], [78.556651, 28.03974], [78.569591, 28.037665], [78.584727, 28.032782], [78.595307, 28.021186], [78.604096, 28.007514], [78.614268, 27.996039], [78.62558, 27.989936], [78.669526, 27.975613], [78.711681, 27.96894], [78.720714, 27.965033], [78.73878, 27.952012], [78.759939, 27.945583], [78.806082, 27.941474], [78.877045, 27.922187], [78.895112, 27.913153], [78.939464, 27.882839], [78.945893, 27.872585], [78.950694, 27.848904], [78.956716, 27.838446], [78.981212, 27.827012], [79.032807, 27.83161], [79.055919, 27.821357], [79.076264, 27.815619], [79.130056, 27.827501], [79.155528, 27.817939], [79.161388, 27.810411], [79.163992, 27.802843], [79.165701, 27.794257], [79.1692, 27.7838], [79.192963, 27.735704], [79.195567, 27.723985], [79.195567, 27.711046], [79.197032, 27.699327], [79.203624, 27.691352], [79.265391, 27.6671], [79.298269, 27.649685], [79.33196, 27.636827], [79.368582, 27.634101], [79.409923, 27.646593], [79.443289, 27.60696], [79.464692, 27.586534], [79.480724, 27.577704], [79.493175, 27.573432], [79.515717, 27.554714], [79.528575, 27.550401], [79.546479, 27.548163], [79.554779, 27.541531], [79.557872, 27.530829], [79.561697, 27.486884], [79.566417, 27.475369], [79.576182, 27.46308], [79.598562, 27.448594], [79.611095, 27.437812], [79.622488, 27.417507], [79.626231, 27.394843], [79.628429, 27.351833], [79.631602, 27.340888], [79.636241, 27.330512], [79.648936, 27.311469], [79.684255, 27.276475], [79.689952, 27.266425], [79.697765, 27.241523], [79.716726, 27.225043], [79.765636, 27.201606], [79.819021, 27.156928], [79.837983, 27.145209], [79.850841, 27.141059], [79.857595, 27.139919], [79.864838, 27.139512], [79.91155, 27.148383], [79.930186, 27.143744], [79.950613, 27.119005], [79.990245, 27.049628], [80.008311, 27.026882], [80.012462, 27.017117], [80.010753, 27.006415], [80.007253, 26.995673], [80.005056, 26.985622], [80.009369, 26.97073], [80.019949, 26.957221], [80.089854, 26.896918], [80.107839, 26.873725], [80.115001, 26.848456], [80.117686, 26.8039], [80.121674, 26.781358], [80.128184, 26.762152], [80.141612, 26.742377], [80.162608, 26.722602], [80.186127, 26.707384], [80.231212, 26.69599], [80.245128, 26.681952], [80.253184, 26.662136], [80.262136, 26.62991], [80.290538, 26.570095], [80.296886, 26.548692], [80.305756, 26.541287], [80.317882, 26.53738], [80.330658, 26.5362], [80.336355, 26.530137], [80.343272, 26.500067], [80.347748, 26.488389], [80.403331, 26.441596], [80.414806, 26.436225], [80.42628, 26.432318], [80.509939, 26.381049], [80.525971, 26.364936], [80.532725, 26.348944], [80.553315, 26.262966], [80.553803, 26.25198], [80.558849, 26.238227], [80.570567, 26.232611], [80.584402, 26.229071], [80.5949, 26.221503], [80.59962, 26.210517], [80.599132, 26.202216], [80.596446, 26.194119], [80.5949, 26.183661], [80.597667, 26.174587], [80.604584, 26.169053], [80.622162, 26.160102], [80.673106, 26.114814], [80.69044, 26.104844], [80.700694, 26.103827], [80.718761, 26.10989], [80.728282, 26.11164], [80.742931, 26.110175], [80.750011, 26.106024], [80.755626, 26.099555], [80.765554, 26.091173], [80.788585, 26.080634], [80.796886, 26.07335], [80.800304, 26.060411], [80.797944, 26.049099], [80.795095, 26.040351], [80.798432, 26.034044], [80.813975, 26.029731], [80.832449, 26.047919], [80.853445, 26.058173], [80.877859, 26.062812], [80.906342, 26.06391], [80.925792, 26.066596], [80.961925, 26.076972], [80.985281, 26.076931], [81.010753, 26.071357], [81.032807, 26.060981], [81.04835, 26.044053], [81.05421, 26.018866], [81.065196, 26.000312], [81.090424, 25.984076], [81.117931, 25.972276], [81.135509, 25.967068], [81.163178, 25.962958], [81.187266, 25.955268], [81.204112, 25.939276], [81.213878, 25.882839], [81.224539, 25.868516], [81.243744, 25.860378], [81.294444, 25.84516], [81.302013, 25.840766], [81.358653, 25.78616], [81.366791, 25.780829], [81.384044, 25.777167], [81.392833, 25.772162], [81.402761, 25.758897], [81.400483, 25.749538], [81.392019, 25.740424], [81.382498, 25.728095], [81.37672, 25.704291], [81.382823, 25.682074], [81.399994, 25.665595], [81.44101, 25.654893], [81.464122, 25.636094], [81.47877, 25.631903], [81.51295, 25.631171], [81.515147, 25.62873], [81.515636, 25.624538], [81.526134, 25.60932], [81.530935, 25.599718], [81.538992, 25.591091], [81.553803, 25.584662], [81.566173, 25.584011], [81.598888, 25.590888], [81.630056, 25.586534], [81.639252, 25.574246], [81.642833, 25.554796], [81.657481, 25.529486], [81.663666, 25.524482], [81.676768, 25.519843], [81.684093, 25.515815], [81.704682, 25.494696], [81.716889, 25.493598], [81.745128, 25.495795], [81.75587, 25.491278], [81.778331, 25.477973], [81.798757, 25.480658], [81.841807, 25.502143], [81.885753, 25.512885], [81.90797, 25.511664], [81.917491, 25.498399], [81.913097, 25.477118], [81.904552, 25.45836], [81.898936, 25.438341], [81.90325, 25.412787], [81.918956, 25.376288], [81.937511, 25.344509], [81.95045, 25.333767], [81.9699, 25.32449], [81.991303, 25.320909], [82.009369, 25.327094], [82.025483, 25.335273], [82.042979, 25.335557], [82.060069, 25.329047], [82.075206, 25.316596], [82.082286, 25.300808], [82.08253, 25.287706], [82.08839, 25.278876], [82.112397, 25.27558], [82.129161, 25.282009], [82.159272, 25.310167], [82.181407, 25.316596], [82.191661, 25.314724], [82.204194, 25.309638], [82.214773, 25.302069], [82.219249, 25.29267], [82.217459, 25.280382], [82.213878, 25.272284], [82.208995, 25.264919], [82.205007, 25.255154], [82.196218, 25.218817], [82.196218, 25.202826], [82.201752, 25.189968], [82.216401, 25.183702], [82.236501, 25.185736], [82.273204, 25.193671], [82.264415, 25.203559], [82.239024, 25.213243], [82.225352, 25.220323], [82.243744, 25.239936], [82.253917, 25.257676], [82.266124, 25.270616], [82.290619, 25.27558], [82.312429, 25.263129], [82.327647, 25.215115], [82.348888, 25.214179], [82.360362, 25.224921], [82.372325, 25.253201], [82.383067, 25.26199], [82.397227, 25.26081], [82.414073, 25.252631], [82.430186, 25.241482], [82.441417, 25.231228], [82.47698, 25.186143], [82.496755, 25.169867], [82.527192, 25.159491], [82.551036, 25.157823], [82.578217, 25.1612], [82.592784, 25.173163], [82.567556, 25.2178], [82.585948, 25.225043], [82.615245, 25.224189], [82.636974, 25.220323], [82.684825, 25.193671], [82.730072, 25.155951], [82.778575, 25.124945], [82.835541, 25.118598], [82.871023, 25.137234], [82.920421, 25.194607], [82.961925, 25.206732], [82.995942, 25.204942], [83.008311, 25.21072], [83.019949, 25.22781], [83.025076, 25.246161], [83.023367, 25.262397], [83.016531, 25.276679], [83.006277, 25.289252], [83.041515, 25.323065], [83.134939, 25.326443], [83.171397, 25.351345], [83.179779, 25.378852], [83.177826, 25.410264], [83.163097, 25.436143], [83.1338, 25.446885], [83.123057, 25.452216], [83.130463, 25.464138], [83.153901, 25.484442], [83.161632, 25.49494], [83.174327, 25.519477], [83.185639, 25.529486], [83.212576, 25.535224], [83.23349, 25.524726], [83.253347, 25.509792], [83.290945, 25.49787], [83.311697, 25.479112], [83.325857, 25.47488], [83.342052, 25.477851], [83.368337, 25.491278], [83.383067, 25.494696], [83.409434, 25.487006], [83.436697, 25.467231], [83.482921, 25.423041], [83.507253, 25.406928], [83.53004, 25.401923], [83.543875, 25.411566], [83.54127, 25.43948], [83.503184, 25.48904], [83.490896, 25.517117], [83.510265, 25.529486], [83.536388, 25.534613], [83.558849, 25.547797], [83.59962, 25.584052], [83.617117, 25.597724], [83.634044, 25.604031], [83.664154, 25.611436], [83.692963, 25.614691], [83.705658, 25.608262], [83.711192, 25.601345], [83.723155, 25.594835], [83.735037, 25.586493], [83.740489, 25.573839], [83.745128, 25.550971], [83.749441, 25.537787], [83.75351, 25.529486], [83.771983, 25.517279], [83.793549, 25.515896], [83.839692, 25.52204], [83.88087, 25.52204], [83.897716, 25.523993], [83.904307, 25.529568], [83.908376, 25.538153], [83.917979, 25.549343], [83.981944, 25.589382], [84.003429, 25.608262], [84.058116, 25.673774], [84.143484, 25.736274], [84.179779, 25.745958], [84.212901, 25.728095], [84.217377, 25.713568], [84.22047, 25.695095], [84.229991, 25.681098], [84.253835, 25.679714], [84.272472, 25.692939], [84.308116, 25.738634], [84.326182, 25.748562], [84.339773, 25.752712], [84.355968, 25.760565], [84.372651, 25.765163], [84.387625, 25.759467], [84.419037, 25.73078], [84.437999, 25.718777], [84.463959, 25.711982], [84.479747, 25.703477], [84.486501, 25.700751], [84.49879, 25.699083], [84.560313, 25.701972], [84.577159, 25.700019], [84.595795, 25.693305], [84.617279, 25.702257], [84.668224, 25.705919], [84.688975, 25.717231], [84.709402, 25.737616], [84.728526, 25.749701], [84.749278, 25.753363], [84.775076, 25.748562], [84.853119, 25.712429], [84.881358, 25.707587], [84.904796, 25.711493], [84.949229, 25.729519], [84.973888, 25.734931], [84.996349, 25.73489], [85.058849, 25.728095], [85.085948, 25.721055], [85.102061, 25.703681], [85.124034, 25.659206], [85.142833, 25.641872], [85.162608, 25.638292], [85.182709, 25.637641], [85.20989, 25.626247], [85.233653, 25.619574], [85.237071, 25.618232], [85.244721, 25.613593], [85.251964, 25.603095], [85.261241, 25.584662], [85.272472, 25.56741], [85.284434, 25.554267], [85.299327, 25.546007], [85.319591, 25.543077], [85.333263, 25.537665], [85.369395, 25.51378], [85.388113, 25.508368], [85.421397, 25.517035], [85.456065, 25.537787], [85.515066, 25.584662], [85.559662, 25.523464], [85.576589, 25.508368], [85.621349, 25.482042], [85.634288, 25.471137], [85.651947, 25.463446], [85.670909, 25.469306], [85.72169, 25.504177], [85.737641, 25.510688], [85.755951, 25.514594], [85.778819, 25.515815], [85.830658, 25.50495], [85.872081, 25.478217], [85.946381, 25.412787], [85.997, 25.380316], [86.019135, 25.359158], [86.028331, 25.33393], [86.039154, 25.33039], [86.089447, 25.331977], [86.104096, 25.330186], [86.115896, 25.331488], [86.162201, 25.326199], [86.176036, 25.320258], [86.185802, 25.319281], [86.222585, 25.329413], [86.241222, 25.330186], [86.257904, 25.325385], [86.274425, 25.317572], [86.290294, 25.306708], [86.306163, 25.29267], [86.318126, 25.292507], [86.377859, 25.31037], [86.41505, 25.330878], [86.446056, 25.361884], [86.470225, 25.397773], [86.487722, 25.433214], [86.506847, 25.462673], [86.534434, 25.482856], [86.564382, 25.485216], [86.59075, 25.461208], [86.578868, 25.418769], [86.5796, 25.375067], [86.591075, 25.334988], [86.611257, 25.303534], [86.649669, 25.273057], [86.693858, 25.256415], [86.739675, 25.256374], [86.782481, 25.27558], [86.834727, 25.325954], [86.85849, 25.340644], [86.867931, 25.347927], [86.889903, 25.349962], [86.920421, 25.333319], [86.974213, 25.289252], [86.996186, 25.278388], [87.046886, 25.268907], [87.07724, 25.254218], [87.08782, 25.255927], [87.098155, 25.259792], [87.108409, 25.26199], [87.12379, 25.25727], [87.147065, 25.235175], [87.159923, 25.22781], [87.190115, 25.230292], [87.217703, 25.248358], [87.238536, 25.27501], [87.248627, 25.303534], [87.282156, 25.356147], [87.303722, 25.377061], [87.331554, 25.387274], [87.342459, 25.395819], [87.351085, 25.398505], [87.356619, 25.397813], [87.372325, 25.393337], [87.382091, 25.392279], [87.401378, 25.394395], [87.443858, 25.405951], [87.478282, 25.403754], [87.490652, 25.399685], [87.501882, 25.392279], [87.511974, 25.381944], [87.518077, 25.371365], [87.529796, 25.344509], [87.535737, 25.320136], [87.539806, 25.316596], [87.549734, 25.315253], [87.558116, 25.311957], [87.570242, 25.303534], [87.581472, 25.289984], [87.588634, 25.276882], [87.598643, 25.26671], [87.659597, 25.255154], [87.681163, 25.245469], [87.726085, 25.251654], [87.749522, 25.248318], [87.759776, 25.243516], [87.770112, 25.237006], [87.778819, 25.227607], [87.783702, 25.214179], [87.783376, 25.200303], [87.779063, 25.192003], [87.773204, 25.184597], [87.76946, 25.173163], [87.768647, 25.159288], [87.770437, 25.148017], [87.776296, 25.124783], [87.776459, 25.117987], [87.775076, 25.103339], [87.776296, 25.096869], [87.780935, 25.089911], [87.786876, 25.087592], [87.792572, 25.086615], [87.797374, 25.083808], [87.835541, 25.047187], [87.860606, 25.030788], [87.885509, 25.022325], [87.894054, 25.020819], [87.913097, 25.00373], [87.91627, 25.001899], [87.935313, 25.00434], [87.943858, 25.000596], [87.954275, 24.987616], [87.961192, 24.966173], [87.9581, 24.944159], [87.948985, 24.92414], [87.937022, 24.908759], [87.914806, 24.889024], [87.908702, 24.878363], [87.906668, 24.860948], [87.911143, 24.844428], [87.92213, 24.826524], [87.94752, 24.795762], [87.944916, 24.755316], [87.959483, 24.717231], [88.00587, 24.655544], [88.021495, 24.645819], [88.040457, 24.640652], [88.056733, 24.634304], [88.066905, 24.613878], [88.081472, 24.600124], [88.084727, 24.594062], [88.084727, 24.541938], [88.085541, 24.536933], [88.089692, 24.53323], [88.098399, 24.522732], [88.111257, 24.502061], [88.118907, 24.494167], [88.133393, 24.482489], [88.151378, 24.471706], [88.171153, 24.463731], [88.190847, 24.460639], [88.225108, 24.460639], [88.236257, 24.462755], [88.250906, 24.472195], [88.259776, 24.474311], [88.272227, 24.474962], [88.283376, 24.477118], [88.292898, 24.480577], [88.299734, 24.48546], [88.307872, 24.486151], [88.316417, 24.468451], [88.321707, 24.462755], [88.328136, 24.460639], [88.379487, 24.402289], [88.387218, 24.38878], [88.405284, 24.37169], [88.426687, 24.357001], [88.444428, 24.350775], [88.483328, 24.352973], [88.506114, 24.357978], [88.516124, 24.367499], [88.681407, 24.334052], [88.714285, 24.315619], [88.737071, 24.287299], [88.742686, 24.247748], [88.744558, 24.243679], [88.747081, 24.227159], [88.749278, 24.223456], [88.746104, 24.214219], [88.734386, 24.198594], [88.731212, 24.190009], [88.732188, 24.1824], [88.73585, 24.174587], [88.751475, 24.152655], [88.758067, 24.147406], [88.782481, 24.135769], [88.796967, 24.126003], [88.804779, 24.122097], [88.824474, 24.119086], [88.842784, 24.123236], [88.907319, 24.150987], [88.920909, 24.159451], [88.930675, 24.171576], [88.941173, 24.171942], [88.950694, 24.170437], [88.959727, 24.16706], [88.969005, 24.161973], [88.976736, 24.155951], [88.999929, 24.127794], [89.022553, 24.107204], [89.032725, 24.100043], [89.036632, 24.095323], [89.040457, 24.086046], [89.042491, 24.07807], [89.045421, 24.070583], [89.05185, 24.062323], [89.059255, 24.05504], [89.065684, 24.047065], [89.069753, 24.03795], [89.069753, 24.027452], [89.066498, 24.014838], [89.065033, 24.005316], [89.068126, 23.996446], [89.077566, 23.985867], [89.088715, 23.977159]], [[87.93808, 24.805732], [87.920014, 24.782009], [87.920421, 24.72663], [87.933197, 24.635077], [87.940929, 24.619452], [88.028087, 24.547878], [88.057384, 24.515896], [88.051768, 24.510321], [88.050385, 24.504991], [88.052745, 24.49962], [88.065359, 24.4831], [88.070567, 24.467393], [88.071056, 24.464057], [88.077891, 24.456163], [88.109304, 24.450954], [88.118907, 24.446967], [88.120372, 24.433214], [88.114757, 24.420762], [88.112804, 24.409369], [88.125662, 24.398546], [88.142182, 24.40823], [88.150076, 24.405829], [88.152843, 24.397244], [88.152924, 24.388292], [88.156261, 24.37169], [88.164806, 24.365587], [88.17685, 24.362331], [88.205333, 24.346503], [88.212332, 24.341417], [88.215017, 24.33336], [88.217052, 24.324327], [88.222179, 24.324164], [88.22877, 24.326199], [88.235606, 24.323513], [88.23878, 24.322699], [88.247325, 24.317654], [88.252452, 24.311876], [88.245942, 24.30919], [88.239024, 24.307481], [88.234386, 24.302924], [88.231212, 24.296454], [88.22877, 24.288682], [88.253022, 24.27143], [88.260346, 24.228135], [88.256602, 24.141303], [88.232188, 24.070258], [88.220714, 24.060655], [88.209727, 24.015692], [88.194591, 24.001329], [88.220144, 23.990261], [88.22877, 23.987657], [88.22877, 23.980251], [88.203217, 23.981147], [88.198741, 23.97309], [88.208263, 23.949774], [88.209483, 23.928168], [88.221283, 23.870958], [88.223643, 23.840155], [88.22755, 23.826768], [88.239024, 23.812608], [88.240489, 23.79914], [88.237804, 23.774766], [88.228119, 23.756456], [88.208263, 23.761094], [88.200125, 23.742214], [88.173595, 23.716986], [88.15976, 23.699652], [88.153087, 23.683214], [88.146902, 23.657742], [88.148204, 23.634304], [88.163178, 23.623969], [88.219005, 23.606513], [88.22877, 23.606879], [88.222992, 23.627061], [88.224132, 23.635281], [88.235606, 23.637559], [88.239268, 23.633165], [88.256602, 23.603461], [88.248057, 23.589789], [88.252615, 23.580919], [88.264171, 23.576606], [88.276459, 23.576768], [88.288178, 23.582099], [88.324962, 23.610297], [88.330007, 23.592149], [88.321381, 23.574286], [88.304454, 23.559027], [88.283295, 23.548855], [88.294688, 23.536444], [88.312999, 23.535712], [88.333751, 23.538194], [88.352306, 23.535183], [88.365001, 23.524115], [88.367931, 23.511786], [88.356944, 23.469346], [88.356537, 23.46247], [88.354991, 23.456814], [88.341319, 23.44123], [88.34075, 23.437567], [88.3449, 23.433946], [88.352306, 23.425971], [88.35906, 23.421576], [88.368256, 23.419216], [88.376069, 23.41413], [88.379487, 23.401719], [88.378998, 23.390937], [88.377452, 23.383612], [88.372081, 23.370714], [88.370372, 23.36046], [88.370372, 23.351752], [88.367198, 23.345649], [88.342703, 23.340644], [88.340831, 23.333808], [88.343679, 23.324978], [88.34547, 23.316107], [88.34547, 23.278184], [88.347748, 23.269802], [88.353526, 23.26671], [88.360281, 23.265163], [88.365896, 23.26085], [88.382253, 23.225287], [88.392182, 23.215766], [88.413097, 23.212429], [88.444347, 23.217393], [88.457449, 23.212429], [88.468272, 23.192572], [88.447276, 23.154405], [88.447276, 23.142361], [88.460948, 23.130479], [88.472341, 23.126288], [88.483653, 23.123887], [88.492198, 23.118964], [88.495616, 23.107245], [88.491791, 23.096991], [88.473643, 23.07449], [88.468272, 23.062852], [88.481619, 23.061835], [88.491954, 23.056749], [88.495128, 23.049343], [88.48878, 23.041124], [88.475027, 23.037543], [88.462169, 23.039496], [88.450694, 23.039089], [88.44044, 23.028103], [88.448416, 23.021267], [88.431082, 23.003526], [88.417735, 22.986518], [88.409272, 22.967068], [88.406912, 22.945502]], [[88.429128, 24.35578], [88.421641, 24.333279], [88.430105, 24.323554], [88.442312, 24.314643], [88.453298, 24.283393], [88.466238, 24.270087], [88.482514, 24.264472], [88.499034, 24.271674], [88.518077, 24.263454], [88.53712, 24.229926], [88.539643, 24.199246], [88.509288, 24.199327], [88.512625, 24.188585], [88.518891, 24.184516], [88.525645, 24.183051], [88.529714, 24.18004], [88.531749, 24.171983], [88.530854, 24.168158], [88.529389, 24.164862], [88.529714, 24.158393], [88.528738, 24.151964], [88.524913, 24.148017], [88.523448, 24.14411], [88.529714, 24.137885], [88.538259, 24.136583], [88.555675, 24.145819], [88.564545, 24.144721], [88.567393, 24.139228], [88.568614, 24.122423], [88.570811, 24.117377], [88.578136, 24.114691], [88.584727, 24.115749], [88.591238, 24.117621], [88.598643, 24.117377], [88.619721, 24.108466], [88.625906, 24.098456], [88.626964, 24.086208], [88.632823, 24.070258], [88.636322, 24.074286], [88.642996, 24.078966], [88.646414, 24.083279], [88.648529, 24.066596], [88.646658, 24.036444], [88.641124, 24.005723], [88.632823, 23.987657], [88.653575, 23.983507], [88.67921, 23.983669], [88.700613, 23.980496], [88.708507, 23.966579], [88.746511, 23.966742], [88.755382, 23.964789], [88.76295, 23.960476], [88.769949, 23.953559], [88.787201, 23.961697], [88.803966, 23.953396], [88.821788, 23.940009], [88.841889, 23.933051], [88.853038, 23.92536], [88.862722, 23.908026], [88.862885, 23.889512], [88.845714, 23.878445], [88.858816, 23.872097], [88.868663, 23.869005], [88.872976, 23.870958], [88.871104, 23.862372], [88.86614, 23.857611], [88.86085, 23.854438], [88.858653, 23.850531], [88.858653, 23.802069], [88.86964, 23.713813], [88.869558, 23.699652], [88.860444, 23.684516], [88.858653, 23.682644], [88.855968, 23.678046], [88.850027, 23.679755], [88.844249, 23.683783], [88.841889, 23.686062], [88.826915, 23.681179], [88.824962, 23.669379], [88.832042, 23.641303], [88.825776, 23.636746], [88.811615, 23.630683], [88.796641, 23.626532], [88.78712, 23.627712], [88.774099, 23.633734], [88.764415, 23.627061], [88.761729, 23.61286], [88.769949, 23.596625], [88.750418, 23.590644], [88.740164, 23.585517], [88.73585, 23.579901], [88.740001, 23.564276], [88.749522, 23.555935], [88.7588, 23.549262], [88.767507, 23.524522], [88.786143, 23.505683], [88.790538, 23.497016], [88.793712, 23.485216], [88.802257, 23.482937], [88.828298, 23.486762], [88.831065, 23.473741], [88.828136, 23.448106], [88.834727, 23.429958], [88.86614, 23.438992], [88.874441, 23.447943], [88.884532, 23.461534], [88.895763, 23.472439], [88.907237, 23.47309], [88.909109, 23.465359], [88.906261, 23.436143], [88.907237, 23.425971], [88.899913, 23.424099], [88.892833, 23.419501], [88.889415, 23.412909], [88.893565, 23.404853], [88.899994, 23.403266], [88.930675, 23.404853], [88.939138, 23.396511], [88.938243, 23.380194], [88.929454, 23.369452], [88.913992, 23.377509], [88.90504, 23.36225], [88.933035, 23.356269], [88.97047, 23.358466], [88.989024, 23.367255], [88.994884, 23.381659], [88.99464, 23.388373], [88.985362, 23.391181], [88.976329, 23.396796], [88.970632, 23.401394], [88.967865, 23.404853], [88.974376, 23.417426], [88.990001, 23.410956], [89.006765, 23.396511], [89.016368, 23.384955], [89.016775, 23.380194], [89.014171, 23.376532], [89.010753, 23.373481], [89.009532, 23.370714], [89.012136, 23.367255], [89.021088, 23.360541], [89.023204, 23.357042], [89.022065, 23.3487], [89.017507, 23.340196], [89.015147, 23.283393], [89.019786, 23.27143], [89.020763, 23.261908], [89.012706, 23.251654], [89.002045, 23.24197], [88.995942, 23.234158], [88.996755, 23.222846], [89.003022, 23.212836], [89.012706, 23.209988], [89.023204, 23.219835], [89.027192, 23.216579], [89.029796, 23.214911], [89.036876, 23.212429], [89.040619, 23.205186], [89.049571, 23.193915], [89.054698, 23.183458], [89.047374, 23.1789], [89.04127, 23.173529], [89.051199, 23.161322], [89.074718, 23.141384], [89.106212, 23.088202], [89.119395, 23.075873], [89.097992, 23.04739], [89.09075, 23.033026], [89.085216, 23.014431], [89.078136, 22.998969], [89.076427, 22.987413], [89.081554, 22.976874], [89.093272, 22.973009], [89.103526, 22.976996], [89.112315, 22.978339], [89.119395, 22.96662], [89.095225, 22.953315], [89.091401, 22.949286], [89.093272, 22.934272], [89.098155, 22.930487], [89.104747, 22.931708], [89.112071, 22.931912], [89.12379, 22.934272], [89.1303, 22.930203], [89.136811, 22.893622], [89.133393, 22.890082], [89.119395, 22.897773], [89.116954, 22.894355], [89.11671, 22.893256], [89.115733, 22.892605], [89.112071, 22.890245], [89.121755, 22.877753], [89.125906, 22.870632], [89.126557, 22.863959], [89.126231, 22.853054], [89.12851, 22.837755], [89.134776, 22.825995], [89.143565, 22.822089], [89.153575, 22.830105], [89.160492, 22.822618], [89.153331, 22.817979], [89.149994, 22.811632], [89.15032, 22.803778], [89.153575, 22.794704], [89.163829, 22.800401], [89.174246, 22.808376], [89.183604, 22.813788], [89.191417, 22.812079], [89.193289, 22.802802], [89.177745, 22.779893], [89.174083, 22.767401], [89.180756, 22.767401], [89.189464, 22.774522], [89.193777, 22.768256], [89.196788, 22.756456], [89.201264, 22.746894], [89.225597, 22.736436], [89.242198, 22.732204], [89.249766, 22.736396], [89.256114, 22.736843], [89.270274, 22.728135], [89.284434, 22.716864], [89.290619, 22.709337], [89.295909, 22.704657], [89.306082, 22.700303], [89.311697, 22.692816], [89.304291, 22.678656], [89.263438, 22.705919], [89.268647, 22.681586], [89.279063, 22.667792], [89.291921, 22.656114], [89.304291, 22.637722], [89.295665, 22.633124], [89.292491, 22.625352], [89.293549, 22.615098], [89.293142, 22.600124]], [[89.088308, 23.978339], [89.088715, 23.977159]], [[89.088715, 23.977159], [89.11614, 23.955756], [89.137462, 23.943061], [89.15919, 23.933539], [89.186453, 23.9289], [89.26946, 23.936794], [89.296479, 23.935004], [89.321381, 23.929877], [89.345144, 23.920478], [89.377859, 23.89997], [89.467296, 23.864854], [89.490001, 23.852729], [89.53004, 23.819444], [89.555675, 23.814805], [89.573171, 23.819932], [89.603282, 23.837755], [89.61964, 23.843695], [89.674897, 23.848456], [89.708914, 23.856798], [89.723399, 23.85574], [89.753673, 23.845486], [89.749278, 23.848009]], [[89.088715, 23.977159], [89.096202, 23.956], [89.097179, 23.95246], [89.09726, 23.948554], [89.098155, 23.9442], [89.104503, 23.934272], [89.11378, 23.926052], [89.156668, 23.898464], [89.177419, 23.881537], [89.182628, 23.873114], [89.184174, 23.865058], [89.187592, 23.859076], [89.210541, 23.853705], [89.2199, 23.846503], [89.249522, 23.816433], [89.255463, 23.806749], [89.255951, 23.771674], [89.261974, 23.751817], [89.276541, 23.739529], [89.311127, 23.72016], [89.35255, 23.671739], [89.381114, 23.673407], [89.397716, 23.678087], [89.410737, 23.679226], [89.42099, 23.674425], [89.480479, 23.593044], [89.493093, 23.579901], [89.499441, 23.570014], [89.503835, 23.55744], [89.509776, 23.546658], [89.52003, 23.54206], [89.525808, 23.537421], [89.516531, 23.527411], [89.503347, 23.517768], [89.496755, 23.514106], [89.495616, 23.506659], [89.496511, 23.499376], [89.499034, 23.492621], [89.50294, 23.486762], [89.518972, 23.508409], [89.548106, 23.505683], [89.578705, 23.490098], [89.598643, 23.47309], [89.607595, 23.45307], [89.626475, 23.370714], [89.613536, 23.376003], [89.609467, 23.379421], [89.605968, 23.384955], [89.598643, 23.384955], [89.597585, 23.353054], [89.612315, 23.315212], [89.637625, 23.288194], [89.667491, 23.288764], [89.656261, 23.273301], [89.636241, 23.255316], [89.627615, 23.240343], [89.680919, 23.226996], [89.683197, 23.209906], [89.680105, 23.189236], [89.694835, 23.171454], [89.707286, 23.17003], [89.716238, 23.175605], [89.72462, 23.182481], [89.736339, 23.185126], [89.750255, 23.179796], [89.755951, 23.170518], [89.752859, 23.161729], [89.740164, 23.157782], [89.733816, 23.153428], [89.718354, 23.133368], [89.710948, 23.119086], [89.700776, 23.122585], [89.681163, 23.137966], [89.680268, 23.126736], [89.681733, 23.11754], [89.684825, 23.109971], [89.689138, 23.103827], [89.697765, 23.096951], [89.714773, 23.093817], [89.722667, 23.089545], [89.732514, 23.07628], [89.756847, 23.028103], [89.77296, 23.010321], [89.804861, 22.9831], [89.81837, 22.96662], [89.82252, 22.957302], [89.828136, 22.939073], [89.83253, 22.931912], [89.838145, 22.928005], [89.853282, 22.92182], [89.859304, 22.91824], [89.879649, 22.896511], [89.887218, 22.890245], [89.928233, 22.870429], [89.942882, 22.857286], [89.99879, 22.768866], [90.006765, 22.750271], [90.010753, 22.726426], [90.009939, 22.686143], [90.013276, 22.667304], [90.024425, 22.651313], [90.01588, 22.627753], [90.014415, 22.596137], [90.017833, 22.566352], [90.024425, 22.548285], [90.019542, 22.538438], [90.011974, 22.511094], [90.010183, 22.490261]], [[90.087494, 23.57864], [90.083507, 23.557725], [90.069021, 23.527696], [90.067963, 23.519843], [90.06894, 23.511786], [90.0713, 23.503933], [90.079031, 23.488552], [90.112397, 23.438992], [90.093435, 23.427558], [90.082123, 23.388699], [90.064708, 23.391181], [90.074148, 23.377956], [90.095307, 23.375067], [90.116466, 23.369167], [90.126231, 23.346788], [90.127371, 23.335273], [90.132335, 23.311713], [90.133718, 23.298407], [90.129893, 23.290595], [90.121104, 23.290107], [90.111501, 23.294623], [90.105561, 23.301825], [90.098888, 23.301825], [90.098888, 23.26085], [90.105561, 23.26085], [90.108002, 23.274766], [90.116466, 23.280341], [90.128184, 23.277899], [90.140554, 23.267646], [90.145437, 23.253933], [90.143158, 23.243272], [90.145437, 23.236599], [90.164073, 23.234158], [90.180186, 23.233913], [90.197358, 23.231635], [90.212576, 23.225165], [90.22226, 23.212429], [90.219819, 23.204535], [90.212576, 23.191311]], [[90.212576, 23.191311], [90.212169, 23.190619], [90.201752, 23.177354], [90.191742, 23.171454], [90.175955, 23.173611], [90.171641, 23.179226], [90.174571, 23.19599], [90.177419, 23.199042], [90.184255, 23.199978], [90.198416, 23.199408], [90.208507, 23.197374], [90.212169, 23.192816], [90.212576, 23.191311]], [[90.212576, 23.191311], [90.21339, 23.188015], [90.215424, 23.185126], [90.235606, 23.182644], [90.245942, 23.180121], [90.250418, 23.175157], [90.254812, 23.149726], [90.253184, 23.139228], [90.242931, 23.130479], [90.242931, 23.124294], [90.266612, 23.122423], [90.2942, 23.116726], [90.318614, 23.106024], [90.332123, 23.089545], [90.325287, 23.089545], [90.331391, 23.075303], [90.324718, 23.0692], [90.312266, 23.065741], [90.301199, 23.059109], [90.292084, 23.042833], [90.30185, 23.041327], [90.317312, 23.043484], [90.325287, 23.038031], [90.326182, 23.020697], [90.325287, 23.021267], [90.323741, 23.015815], [90.319428, 23.010565], [90.317312, 23.004584], [90.322032, 22.997016], [90.334727, 22.988552], [90.346934, 22.982489], [90.355968, 22.975287], [90.35963, 22.962917], [90.364513, 22.955024], [90.375011, 22.945624], [90.384776, 22.933783], [90.387462, 22.91824], [90.384695, 22.914822], [90.373139, 22.906277], [90.370128, 22.904568], [90.366466, 22.901231], [90.365326, 22.84573], [90.36964, 22.81684], [90.379324, 22.79267], [90.394216, 22.774848]], [[88.406912, 22.945502], [88.444428, 22.945502], [88.455984, 22.943427], [88.475597, 22.934027], [88.485362, 22.931912], [88.495535, 22.934272], [88.503917, 22.940131], [88.528331, 22.968451], [88.53655, 22.980292], [88.546397, 22.984076], [88.555919, 22.985297], [88.565115, 22.983181], [88.574474, 22.976874], [88.585948, 22.971218], [88.598562, 22.970404], [88.609386, 22.971137], [88.615733, 22.970038], [88.620209, 22.961127], [88.620616, 22.952338], [88.622813, 22.944525], [88.632823, 22.938747], [88.639252, 22.938747], [88.644786, 22.94127], [88.649669, 22.944363], [88.653819, 22.945502], [88.655365, 22.945828], [88.668224, 22.945868], [88.667003, 22.945502], [88.704112, 22.946357], [88.724213, 22.943305], [88.739268, 22.935329], [88.746511, 22.920844], [88.750662, 22.884345], [88.756277, 22.870429], [88.773041, 22.855048], [88.788666, 22.849189], [88.828298, 22.849311], [88.829682, 22.845242], [88.838878, 22.836859], [88.848643, 22.829861], [88.85255, 22.830105], [88.854096, 22.818427], [88.851736, 22.810655], [88.838308, 22.794704], [88.84962, 22.788845], [88.851003, 22.783474], [88.847992, 22.777859], [88.845714, 22.771104], [88.840587, 22.745714], [88.838308, 22.739447], [88.830496, 22.736599], [88.821544, 22.739203], [88.813975, 22.739529], [88.810964, 22.729844], [88.812999, 22.721055], [88.81837, 22.715766], [88.825206, 22.711534], [88.832042, 22.705919], [88.868175, 22.663642], [88.879812, 22.657538], [88.900483, 22.658067], [88.916515, 22.662055], [88.929617, 22.658759], [88.941905, 22.637722], [88.951671, 22.612128], [88.956065, 22.585232], [88.949799, 22.562201], [88.927664, 22.548285], [88.958588, 22.536973], [88.970632, 22.528144], [88.979584, 22.491075], [88.997976, 22.451483], [89.002208, 22.428168], [89.000255, 22.420274], [88.991791, 22.407172], [88.989024, 22.396837], [88.989268, 22.38703], [89.000987, 22.333848], [89.00644, 22.321641], [89.023204, 22.29503], [89.008718, 22.285834], [89.018321, 22.264838], [89.061941, 22.211737], [89.070323, 22.195014], [89.075776, 22.175238], [89.077729, 22.151068], [89.060313, 22.130642]], [[88.406912, 22.945502], [88.403901, 22.9171], [88.39796, 22.896837], [88.379487, 22.856757], [88.365896, 22.815782], [88.348155, 22.788194], [88.34547, 22.778266], [88.348562, 22.758002], [88.362804, 22.721218], [88.365896, 22.698513], [88.364024, 22.656073], [88.356944, 22.612616], [88.342296, 22.57628], [88.317393, 22.555121], [88.296886, 22.554023], [88.271983, 22.55622], [88.251231, 22.553656], [88.242442, 22.538031], [88.241222, 22.526719], [88.237641, 22.521796], [88.230072, 22.520779], [88.218272, 22.521023], [88.206716, 22.51671], [88.199799, 22.506781], [88.194265, 22.495429], [88.187104, 22.486843], [88.170909, 22.480821], [88.150483, 22.475898], [88.133067, 22.468695], [88.125662, 22.455837], [88.137218, 22.418077], [88.139659, 22.398871], [88.129242, 22.390652], [88.106944, 22.383816], [88.101085, 22.367214], [88.105235, 22.329169], [88.103038, 22.314154], [88.099132, 22.299384], [88.09669, 22.293769], [88.082123, 22.271918], [88.080577, 22.268826], [88.0796, 22.265204], [88.077891, 22.248847], [88.075694, 22.241278], [88.070893, 22.23489]], [[88.406261, 22.945502], [88.406912, 22.945502]], [[89.293142, 22.600124], [89.290619, 22.606635], [89.288259, 22.616482], [89.281993, 22.627387], [89.273367, 22.635606], [89.263438, 22.637722], [89.257253, 22.63349], [89.255056, 22.626085], [89.255951, 22.606635], [89.259288, 22.598253], [89.265636, 22.589423], [89.27003, 22.580756], [89.266775, 22.572537], [89.255626, 22.561347], [89.250987, 22.553412], [89.249929, 22.545518], [89.249766, 22.534613], [89.252371, 22.512274], [89.261241, 22.495185], [89.290619, 22.465766], [89.271007, 22.458808], [89.258393, 22.443671], [89.255056, 22.424262], [89.263438, 22.404324], [89.251964, 22.393337], [89.25294, 22.381212], [89.262462, 22.368516], [89.277192, 22.355902], [89.265717, 22.337266], [89.27532, 22.31269], [89.295909, 22.291083], [89.317963, 22.281358], [89.30714, 22.260118], [89.305756, 22.24197], [89.342296, 22.130561], [89.351492, 22.127712], [89.358979, 22.120795], [89.364024, 22.112657], [89.365815, 22.106024], [89.368093, 22.103624], [89.383556, 22.092393], [89.387299, 22.086697], [89.385753, 22.08393], [89.382091, 22.082099], [89.380056, 22.079047], [89.376394, 22.063788], [89.367198, 22.048855], [89.345307, 22.020697], [89.350678, 22.012274], [89.35255, 22.000271], [89.352143, 21.972276]], [[89.293142, 22.600124], [89.293061, 22.597968]], [[89.475678, 22.29503], [89.454112, 22.317003], [89.444347, 22.334052], [89.441498, 22.352159], [89.440115, 22.398993], [89.431244, 22.464708], [89.420665, 22.492051], [89.42213, 22.503485], [89.427419, 22.516303], [89.425548, 22.5338], [89.408376, 22.562323], [89.393891, 22.575629], [89.354015, 22.594916], [89.345307, 22.602891], [89.330658, 22.593451], [89.312592, 22.586982], [89.297293, 22.589382], [89.293142, 22.600124]]]}}]}